HIMAWARI-7 (MTSAT-2)    
1 28937U 06004A   17345.86508476 -.00000248  00000-0  00000-0 0  9998
2 28937   0.0112  57.8857 0003672 209.4331 269.9093  1.00274348 43302
